{
  "type": "FeatureCollection",
  "features": [
    {
      "type": "Feature",
      "properties": { "name": "New York", "population": 8336817 },
      "geometry": { "type": "Point", "coordinates": [-74.006, 40.7128] }
    },
    {
      "type": "Feature",
      "properties": { "name": "London", "population": 8982000 },
      "geometry": { "type": "Point", "coordinates": [-0.1276, 51.5074] }
    },
    {
      "type": "Feature",
      "properties": { "name": "Tokyo", "population": 13960000 },
      "geometry": { "type": "Point", "coordinates": [139.6917, 35.6895] }
    }
  ]
}
