{
  "type": "FeatureCollection",
  "features": [
    {
      "type": "Feature",
      "geometry": {
        "type": "Point",
        "coordinates": [
          72.8777,
          19.076
        ]
      },
      "properties": {
        "city": "Mumbai",
        "state": "Maharashtra",
        "population": 12442373
      }
    },
    {
      "type": "Feature",
      "geometry": {
        "type": "Point",
        "coordinates": [
          77.1025,
          28.7041
        ]
      },
      "properties": {
        "city": "Delhi",
        "state": "Delhi",
        "population": 11034555
      }
    },
    {
      "type": "Feature",
      "geometry": {
        "type": "Point",
        "coordinates": [
          77.5946,
          12.9716
        ]
      },
      "properties": {
        "city": "Bangalore",
        "state": "Karnataka",
        "population": 8443675
      }
    },
    {
      "type": "Feature",
      "geometry": {
        "type": "Point",
        "coordinates": [
          78.4867,
          17.385
        ]
      },
      "properties": {
        "city": "Hyderabad",
        "state": "Telangana",
        "population": 6809970
      }
    },
    {
      "type": "Feature",
      "geometry": {
        "type": "Point",
        "coordinates": [
          80.2707,
          13.0827
        ]
      },
      "properties": {
        "city": "Chennai",
        "state": "Tamil Nadu",
        "population": 7088000
      }
    }
  ]
}